NORAD_CAT_ID,OBJECT_NAME,OBJECT_TYPE,EPOCH,MEAN_MOTION,ECCENTRICITY,INCLINATION,RA_OF_ASC_NODE,ARG_OF_PERICENTER,MEAN_ANOMALY,BSTAR,MEAN_MOTION_DOT,MEAN_MOTION_DDOT,TLE_LINE0,TLE_LINE1,TLE_LINE2,SEMIMAJOR_AXIS,PERIOD,APOGEE,PERIGEE,DECAYED
53704.0,STARLINK-4714,PAYLOAD,2023-12-24 04:09:33,15.08846292,0.000163,53.2174,264.9643,114.3498,245.7664,0.00010221,1.339e-05,0.0,0 STARLINK-4714,1 53704U 22107E   23358.17330209  .00001339  00000-0  10221-3 0  9992,2 53704  53.2174 264.9643 0001630 114.3498 245.7664 15.08846292 72937,6917.861,95.437,540.854,538.599,0.0
53704.0,STARLINK-4714,PAYLOAD,2023-12-24 21:38:48,15.08841298,0.0001658,53.2163,261.6919,114.6319,245.4846,8.9418e-06,-1.46e-06,0.0,0 STARLINK-4714,1 53704U 22107E   23358.90194672 -.00000146  00000-0  89418-5 0  9997,2 53704  53.2163 261.6919 0001658 114.6319 245.4846 15.08841298 73043,6917.876,95.437,540.888,538.594,0.0
53704.0,STARLINK-4714,PAYLOAD,2023-12-24 23:14:11,15.08841397,0.0001613,53.2165,261.3946,113.1605,246.9557,6.3314e-06,-1.87e-06,0.0,0 STARLINK-4714,1 53704U 22107E   23358.96818678 -.00000187  00000-0  63314-5 0  9994,2 53704  53.2165 261.3946 0001613 113.1605 246.9557 15.08841397 72465,6917.876,95.437,540.857,538.625,0.0
53704.0,STARLINK-4714,PAYLOAD,2023-12-25 21:29:35,15.088382,0.0001507,53.2166,257.2326,100.1961,259.9201,-3.2048e-06,-3.39e-06,0.0,0 STARLINK-4714,1 53704U 22107E   23359.89555115 -.00000339  00000-0 -32048-5 0  9991,2 53704  53.2166 257.2326 0001507 100.1961 259.9201 15.08838200 73195,6917.886,95.438,540.793,538.708,0.0
53704.0,STARLINK-4714,PAYLOAD,2023-12-26 02:15:44,15.08842216,0.0001477,53.2168,256.3405,87.2809,272.8352,8.0176e-05,9.88e-06,0.0,0 STARLINK-4714,1 53704U 22107E   23360.09426988  .00000988  00000-0  80176-4 0  9992,2 53704  53.2168 256.3405 0001477  87.2809 272.8352 15.08842216 72638,6917.874,95.437,540.76,538.717,0.0
53704.0,STARLINK-4714,PAYLOAD,2023-12-26 22:55:45,15.08842223,0.0001523,53.2166,252.4846,98.7438,261.3727,0.00012172,1.65e-05,0.0,0 STARLINK-4714,1 53704U 22107E   23360.95539151  .00001650  00000-0  12172-3 0  9991,2 53704  53.2166 252.4846 0001523  98.7438 261.3727 15.08842223 73356,6917.874,95.437,540.792,538.685,0.0
53704.0,STARLINK-4714,PAYLOAD,2023-12-27 02:06:31,15.08847114,0.0001601,53.2167,251.8892,83.689,276.4285,0.00024046,3.542e-05,0.0,0 STARLINK-4714,1 53704U 22107E   23361.08787010  .00003542  00000-0  24046-3 0  9990,2 53704  53.2167 251.8892 0001601  83.6890 276.4285 15.08847114 73375,6917.859,95.437,540.831,538.616,0.0
53704.0,STARLINK-4714,PAYLOAD,2023-12-27 21:11:09,15.08838622,0.0001567,53.2166,248.3175,81.9766,278.1404,3.1724e-05,2.17e-06,0.0,0 STARLINK-4714,1 53704U 22107E   23361.88275425  .00000217  00000-0  31724-4 0  9998,2 53704  53.2166 248.3175 0001567  81.9766 278.1404 15.08838622 73492,6917.885,95.438,540.834,538.666,0.0
53704.0,STARLINK-4714,PAYLOAD,2023-12-28 00:21:56,15.08841614,0.0001485,53.2162,247.728,83.1537,276.9624,7.6045e-05,9.23e-06,0.0,0 STARLINK-4714,1 53704U 22107E   23362.01523416  .00000923  00000-0  76045-4 0  9999,2 53704  53.2162 247.7280 0001485  83.1537 276.9624 15.08841614 72929,6917.875,95.437,540.768,538.713,0.0
53704.0,STARLINK-4714,PAYLOAD,2023-12-28 22:37:19,15.0884485,0.0001573,53.2156,243.5617,79.9834,280.1335,2.2559e-05,7.1e-07,0.0,0 STARLINK-4714,1 53704U 22107E   23362.94259134  .00000071  00000-0  22559-4 0  9999,2 53704  53.2156 243.5617 0001573  79.9834 280.1335 15.08844850 73653,6917.866,95.437,540.819,538.642,0.0
53704.0,STARLINK-4714,PAYLOAD,2023-12-29 19:17:21,15.08840595,0.0001636,53.2158,239.7019,101.3076,258.81,8.5662e-05,1.076e-05,0.0,0 STARLINK-4714,1 53704U 22107E   23363.80371628  .00001076  00000-0  85662-4 0  9998,2 53704  53.2158 239.7019 0001636 101.3076 258.8100 15.08840595 73199,6917.879,95.438,540.875,538.612,0.0
53704.0,STARLINK-4714,PAYLOAD,2023-12-29 22:28:07,15.08841587,0.0001643,53.2174,239.1028,81.1185,278.9993,6.8031e-05,7.95e-06,0.0,0 STARLINK-4714,1 53704U 22107E   23363.93619621  .00000795  00000-0  68031-4 0  9998,2 53704  53.2174 239.1028 0001643  81.1185 278.9993 15.08841587 73808,6917.876,95.437,540.877,538.604,0.0
53704.0,STARLINK-4714,PAYLOAD,2023-12-30 22:18:54,15.08842701,0.0001602,53.2166,234.6391,94.5177,265.5998,0.00010291,1.35e-05,0.0,0 STARLINK-4714,1 53704U 22107E   23364.92979229  .00001350  00000-0  10291-3 0  9993,2 53704  53.2166 234.6391 0001602  94.5177 265.5998 15.08842701 73958,6917.872,95.437,540.845,538.629,0.0
53704.0,STARLINK-4714,PAYLOAD,2023-12-31 18:58:55,15.0883758,0.0001612,53.2169,230.7745,96.8025,263.315,5.6719e-05,6.15e-06,0.0,0 STARLINK-4714,1 53704U 22107E   23365.79091765  .00000615  00000-0  56719-4 0  9998,2 53704  53.2169 230.7745 0001612  96.8025 263.3150 15.08837580 73493,6917.888,95.438,540.868,538.638,0.0
53704.0,STARLINK-4714,PAYLOAD,2023-12-31 20:34:18,15.08836922,0.0001604,53.2169,230.4772,96.256,263.8615,4.5435e-05,4.35e-06,0.0,0 STARLINK-4714,1 53704U 22107E   23365.85715782  .00000435  00000-0  45435-4 0  9990,2 53704  53.2169 230.4772 0001604  96.2560 263.8615 15.08836922 74096,6917.89,95.438,540.864,538.645,0.0
53704.0,STARLINK-4714,PAYLOAD,2024-01-01 14:03:32,15.0883834,0.000167,53.217,227.2057,101.589,258.529,5.0536e-05,5.16e-06,0.0,0 STARLINK-4714,1 53704U 22107E   24001.58579737  .00000516  00000-0  50536-4 0  9994,2 53704  53.2170 227.2057 0001670 101.5890 258.5290 15.08838340 74206,6917.885,95.438,540.906,538.595,0.0
53704.0,STARLINK-4714,PAYLOAD,2024-01-01 20:25:05,15.08838806,0.0001641,53.2169,226.0158,101.4835,258.6341,4.451e-05,4.2e-06,0.0,0 STARLINK-4714,1 53704U 22107E   24001.85075723  .00000420  00000-0  44510-4 0  9999,2 53704  53.2169 226.0158 0001641 101.4835 258.6341 15.08838806 73652,6917.884,95.438,540.884,538.614,0.0
53704.0,STARLINK-4714,PAYLOAD,2024-01-01 22:00:28,15.08839112,0.0001593,53.2168,225.7186,98.0492,262.068,4.2273e-05,3.85e-06,0.0,0 STARLINK-4714,1 53704U 22107E   24001.91699729  .00000385  00000-0  42273-4 0  9998,2 53704  53.2168 225.7186 0001593  98.0492 262.0680 15.08839112 74257,6917.883,95.438,540.85,538.646,0.0
53704.0,STARLINK-4714,PAYLOAD,2024-01-02 21:51:15,15.08840476,0.0001462,53.2163,221.2582,87.1007,273.0152,8.4001e-05,1.049e-05,0.0,0 STARLINK-4714,1 53704U 22107E   24002.91059654  .00001049  00000-0  84001-4 0  9999,2 53704  53.2163 221.2582 0001462  87.1007 273.0152 15.08840476 74407,6917.879,95.438,540.755,538.733,0.0
53704.0,STARLINK-4714,PAYLOAD,2024-01-02 23:26:38,15.08841455,0.0001484,53.2164,220.9608,91.5028,268.6134,9.0154e-05,1.147e-05,0.0,0 STARLINK-4714,1 53704U 22107E   24002.97683559  .00001147  00000-0  90154-4 0  9997,2 53704  53.2164 220.9608 0001484  91.5028 268.6134 15.08841455 73822,6917.876,95.437,540.768,538.714,0.0
53704.0,STARLINK-4714,PAYLOAD,2024-01-03 20:06:39,15.08836233,0.0001517,53.2163,217.0949,95.7236,264.3929,2.6715e-05,1.37e-06,0.0,0 STARLINK-4714,1 53704U 22107E   24003.83796175  .00000137  00000-0  26715-4 0  9992,2 53704  53.2163 217.0949 0001517  95.7236 264.3929 15.08836233 73957,6917.892,95.438,540.806,538.707,0.0
53704.0,STARLINK-4714,PAYLOAD,2024-01-03 21:42:03,15.0883649,0.0001466,53.216,216.7973,92.2236,267.8924,2.5561e-05,1.19e-06,0.0,0 STARLINK-4714,1 53704U 22107E   24003.90420193  .00000119  00000-0  25561-4 0  9992,2 53704  53.2160 216.7973 0001466  92.2236 267.8924 15.08836490 74557,6917.891,95.438,540.77,538.742,0.0
53704.0,STARLINK-4714,PAYLOAD,2024-01-04 13:35:54,15.08840028,0.0001443,53.2159,213.8222,92.7181,267.3976,2.2985e-05,7.8e-07,0.0,0 STARLINK-4714,1 53704U 22107E   24004.56660038  .00000078  00000-0  22985-4 0  9990,2 53704  53.2159 213.8222 0001443  92.7181 267.3976 15.08840028 74654,6917.88,95.438,540.744,538.747,0.0
53704.0,STARLINK-4714,PAYLOAD,2024-01-04 21:32:49,15.0884386,0.0001452,53.2158,212.3365,90.0403,270.0756,5.2492e-05,5.48e-06,0.0,0 STARLINK-4714,1 53704U 22107E   24004.89779670  .00000548  00000-0  52492-4 0  9997,2 53704  53.2158 212.3365 0001452  90.0403 270.0756 15.08843860 74703,6917.869,95.437,540.738,538.729,0.0
53704.0,STARLINK-4714,PAYLOAD,2024-01-05 13:26:41,15.08839835,0.0001546,53.216,209.3639,78.2629,281.8537,7.8089e-05,9.55e-06,0.0,0 STARLINK-4714,1 53704U 22107E   24005.56019936  .00000955  00000-0  78089-4 0  9996,2 53704  53.2160 209.3639 0001546  78.2629 281.8537 15.08839835 74803,6917.881,95.438,540.815,538.676,0.0
53704.0,STARLINK-4714,PAYLOAD,2024-01-05 18:12:50,15.08840098,0.0001541,53.216,208.4717,78.8769,281.2396,7.6258e-05,9.26e-06,0.0,0 STARLINK-4714,1 53704U 22107E   24005.75891928  .00000926  00000-0  76258-4 0  9990,2 53704  53.2160 208.4717 0001541  78.8769 281.2396 15.08840098 74839,6917.88,95.438,540.811,538.679,0.0
53704.0,STARLINK-4714,PAYLOAD,2024-01-05 22:58:59,15.08842444,0.0001403,53.2162,207.5799,79.4762,280.6388,9.1281e-05,1.165e-05,0.0,0 STARLINK-4714,1 53704U 22107E   24005.95763678  .00001165  00000-0  91281-4 0  9991,2 53704  53.2162 207.5799 0001403  79.4762 280.6388 15.08842444 74277,6917.873,95.437,540.708,538.767,0.0
53704.0,STARLINK-4714,PAYLOAD,2024-01-06 19:39:00,15.0884435,0.0001505,53.2168,203.7109,110.4066,249.7088,1.8213e-05,2e-08,0.0,0 STARLINK-4714,1 53704U 22107E   24006.81875640  .00000002  00000-0  18213-4 0  9993,2 53704  53.2168 203.7109 0001505 110.4066 249.7088 15.08844350 74992,6917.867,95.437,540.773,538.691,0.0
53704.0,STARLINK-4714,PAYLOAD,2024-01-07 13:08:15,15.0884012,0.0001545,53.2167,200.4403,106.7869,253.3292,9.1532e-06,-1.42e-06,0.0,0 STARLINK-4714,1 53704U 22107E   24007.54740002 -.00000142  00000-0  91532-5 0  9999,2 53704  53.2167 200.4403 0001545 106.7869 253.3292 15.08840120 75108,6917.88,95.438,540.814,538.676,0.0
53704.0,STARLINK-4714,PAYLOAD,2024-01-07 19:29:47,15.08840486,0.0001492,53.2165,199.2512,101.892,258.224,1.1193e-05,-1.1e-06,0.0,0 STARLINK-4714,1 53704U 22107E   24007.81235976 -.00000110  00000-0  11193-4 0  9997,2 53704  53.2165 199.2512 0001492 101.8920 258.2240 15.08840486 74557,6917.879,95.438,540.776,538.712,0.0
